[{"OBJECT_NAME":"TDRS 11","OBJECT_ID":"2013-004A","EPOCH":"2026-03-15T07:30:17.713728","MEAN_MOTION":1.00266182,"ECCENTRICITY":0.0004218,"INCLINATION":3.3836,"RA_OF_ASC_NODE":29.5646,"ARG_OF_PERICENTER":343.097,"MEAN_ANOMALY":98.5456,"EPHEMERIS_TYPE":0,"CLASSIFICATION_TYPE":"U","NORAD_CAT_ID":39070,"ELEMENT_SET_NO":999,"REV_AT_EPOCH":4575,"BSTAR":0,"MEAN_MOTION_DOT":8.1e-7,"MEAN_MOTION_DDOT":0},{"OBJECT_NAME":"TDRS 12","OBJECT_ID":"2014-004A","EPOCH":"2026-03-15T06:44:00.441888","MEAN_MOTION":1.00266322,"ECCENTRICITY":0.00034862,"INCLINATION":3.8866,"RA_OF_ASC_NODE":17.4431,"ARG_OF_PERICENTER":272.3842,"MEAN_ANOMALY":303.0019,"EPHEMERIS_TYPE":0,"CLASSIFICATION_TYPE":"U","NORAD_CAT_ID":39504,"ELEMENT_SET_NO":999,"REV_AT_EPOCH":4333,"BSTAR":0,"MEAN_MOTION_DOT":-2.68e-6,"MEAN_MOTION_DDOT":0},{"OBJECT_NAME":"GPM-CORE","OBJECT_ID":"2014-009C","EPOCH":"2026-03-15T06:40:03.075168","MEAN_MOTION":15.44818903,"ECCENTRICITY":0.00123834,"INCLINATION":64.9718,"RA_OF_ASC_NODE":262.7673,"ARG_OF_PERICENTER":267.5829,"MEAN_ANOMALY":92.3894,"EPHEMERIS_TYPE":0,"CLASSIFICATION_TYPE":"U","NORAD_CAT_ID":39574,"ELEMENT_SET_NO":999,"REV_AT_EPOCH":68330,"BSTAR":0.00019962417,"MEAN_MOTION_DOT":9.186e-5,"MEAN_MOTION_DDOT":0},{"OBJECT_NAME":"MMS 1","OBJECT_ID":"2015-011A","EPOCH":"2026-03-15T08:00:01.999872","MEAN_MOTION":0.28306612,"ECCENTRICITY":0.84048336,"INCLINATION":70.854,"RA_OF_ASC_NODE":350.0647,"ARG_OF_PERICENTER":165.368,"MEAN_ANOMALY":85.5792,"EPHEMERIS_TYPE":0,"CLASSIFICATION_TYPE":"U","NORAD_CAT_ID":40482,"ELEMENT_SET_NO":999,"REV_AT_EPOCH":136,"BSTAR":0,"MEAN_MOTION_DOT":-1.869e-5,"MEAN_MOTION_DDOT":0},{"OBJECT_NAME":"MMS 2","OBJECT_ID":"2015-011B","EPOCH":"2026-03-15T08:00:01.999872","MEAN_MOTION":0.28306852,"ECCENTRICITY":0.84056116,"INCLINATION":70.8563,"RA_OF_ASC_NODE":350.066,"ARG_OF_PERICENTER":165.3741,"MEAN_ANOMALY":85.5637,"EPHEMERIS_TYPE":0,"CLASSIFICATION_TYPE":"U","NORAD_CAT_ID":40483,"ELEMENT_SET_NO":999,"REV_AT_EPOCH":136,"BSTAR":0,"MEAN_MOTION_DOT":-1.87e-5,"MEAN_MOTION_DDOT":0},{"OBJECT_NAME":"MMS 3","OBJECT_ID":"2015-011C","EPOCH":"2026-03-15T08:00:01.999872","MEAN_MOTION":0.28306824,"ECCENTRICITY":0.84048873,"INCLINATION":70.8587,"RA_OF_ASC_NODE":350.0707,"ARG_OF_PERICENTER":165.3682,"MEAN_ANOMALY":85.5711,"EPHEMERIS_TYPE":0,"CLASSIFICATION_TYPE":"U","NORAD_CAT_ID":40484,"ELEMENT_SET_NO":999,"REV_AT_EPOCH":136,"BSTAR":0,"MEAN_MOTION_DOT":-1.869e-5,"MEAN_MOTION_DDOT":0},{"OBJECT_NAME":"MMS 4","OBJECT_ID":"2015-011D","EPOCH":"2026-03-15T08:00:01.999872","MEAN_MOTION":0.28306811,"ECCENTRICITY":0.84043955,"INCLINATION":70.8566,"RA_OF_ASC_NODE":350.0658,"ARG_OF_PERICENTER":165.3756,"MEAN_ANOMALY":85.557,"EPHEMERIS_TYPE":0,"CLASSIFICATION_TYPE":"U","NORAD_CAT_ID":40485,"ELEMENT_SET_NO":999,"REV_AT_EPOCH":136,"BSTAR":0,"MEAN_MOTION_DOT":-1.869e-5,"MEAN_MOTION_DDOT":0},{"OBJECT_NAME":"TDRS 13","OBJECT_ID":"2017-047A","EPOCH":"2026-03-15T04:59:32.736192","MEAN_MOTION":1.00272198,"ECCENTRICITY":0.00110335,"INCLINATION":3.4313,"RA_OF_ASC_NODE":0.3148,"ARG_OF_PERICENTER":98.7212,"MEAN_ANOMALY":137.1934,"EPHEMERIS_TYPE":0,"CLASSIFICATION_TYPE":"U","NORAD_CAT_ID":42915,"ELEMENT_SET_NO":999,"REV_AT_EPOCH":3140,"BSTAR":0,"MEAN_MOTION_DOT":-9.8e-7,"MEAN_MOTION_DDOT":0},{"OBJECT_NAME":"NOAA 20 (JPSS-1)","OBJECT_ID":"2017-073A","EPOCH":"2026-03-15T06:08:16.893312","MEAN_MOTION":14.19537656,"ECCENTRICITY":0.00014544,"INCLINATION":98.7698,"RA_OF_ASC_NODE":14.5877,"ARG_OF_PERICENTER":130.1629,"MEAN_ANOMALY":229.9675,"EPHEMERIS_TYPE":0,"CLASSIFICATION_TYPE":"U","NORAD_CAT_ID":43013,"ELEMENT_SET_NO":999,"REV_AT_EPOCH":43114,"BSTAR":5.4340581e-5,"MEAN_MOTION_DOT":7.0e-7,"MEAN_MOTION_DDOT":0}]
